NORAD_CAT_ID,OBJECT_NAME,OBJECT_TYPE,EPOCH,MEAN_MOTION,ECCENTRICITY,INCLINATION,RA_OF_ASC_NODE,ARG_OF_PERICENTER,MEAN_ANOMALY,BSTAR,MEAN_MOTION_DOT,MEAN_MOTION_DDOT,TLE_LINE0,TLE_LINE1,TLE_LINE2,SEMIMAJOR_AXIS,PERIOD,APOGEE,PERIGEE,DECAYED
53622.0,STARLINK-4568,PAYLOAD,2024-06-01 12:54:16,15.08830806,0.0001232,53.2166,254.4173,86.6764,273.4369,-8.699e-05,-1.672e-05,0.0,0 STARLINK-4568,1 53622U 22104AL  24153.53769608 -.00001672  00000-0 -86990-4 0  9990,2 53622  53.2166 254.4173 0001232  86.6764 273.4369 15.08830806 97520,6917.908,95.438,540.626,538.921,0.0
53622.0,STARLINK-4568,PAYLOAD,2024-06-01 14:29:39,15.08832353,0.0001263,53.2164,254.1203,92.703,267.4106,-6.6382e-05,-1.344e-05,0.0,0 STARLINK-4568,1 53622U 22104AL  24153.60393461 -.00001344  00000-0 -66382-4 0  9997,2 53622  53.2164 254.1203 0001263  92.7030 267.4106 15.08832353 98215,6917.904,95.438,540.642,538.895,0.0
53622.0,STARLINK-4568,PAYLOAD,2024-06-02 00:01:58,15.08843005,0.0001307,53.2165,252.3354,86.5746,273.5395,2.1604e-05,5.6e-07,0.0,0 STARLINK-4568,1 53622U 22104AL  24154.00136636  .00000056  00000-0  21604-4 0  9996,2 53622  53.2165 252.3354 0001307  86.5746 273.5395 15.08843005 97591,6917.871,95.437,540.64,538.832,0.0
53622.0,STARLINK-4568,PAYLOAD,2024-06-02 12:45:02,15.0884729,0.000127,53.2157,249.9566,85.2986,274.8152,9.2518e-05,1.185e-05,0.0,0 STARLINK-4568,1 53622U 22104AL  24154.53128335  .00001185  00000-0  92518-4 0  9997,2 53622  53.2157 249.9566 0001270  85.2986 274.8152 15.08847290 98350,6917.858,95.437,540.602,538.845,0.0
53622.0,STARLINK-4568,PAYLOAD,2024-06-03 12:35:50,15.08840058,0.0001462,53.2147,245.4949,95.0086,265.1073,0.00027649,4.115e-05,0.0,0 STARLINK-4568,1 53622U 22104AL  24155.52488866  .00004115  00000-0  27649-3 0  9993,2 53622  53.2147 245.4949 0001462  95.0086 265.1073 15.08840058 97829,6917.88,95.438,540.757,538.734,0.0
53622.0,STARLINK-4568,PAYLOAD,2024-06-04 12:26:36,15.08847302,0.0001507,53.2149,241.0334,91.6591,268.4574,0.00010858,1.441e-05,0.0,0 STARLINK-4568,1 53622U 22104AL  24156.51848341  .00001441  00000-0  10858-3 0  9994,2 53622  53.2149 241.0334 0001507  91.6591 268.4574 15.08847302 98657,6917.858,95.437,540.766,538.681,0.0
53622.0,STARLINK-4568,PAYLOAD,2024-06-04 15:37:23,15.08849182,0.000158,53.215,240.4386,92.7112,267.4061,0.00011831,1.596e-05,0.0,0 STARLINK-4568,1 53622U 22104AL  24156.65096205  .00001596  00000-0  11831-3 0  9996,2 53622  53.2150 240.4386 0001580  92.7112 267.4061 15.08849182 97995,6917.852,95.437,540.81,538.624,0.0
53622.0,STARLINK-4568,PAYLOAD,2024-06-05 05:55:51,15.08837955,0.0001485,53.2141,237.7608,95.3628,264.7533,6.7768e-05,7.91e-06,0.0,0 STARLINK-4568,1 53622U 22104AL  24157.24712637  .00000791  00000-0  67768-4 0  9993,2 53622  53.2141 237.7608 0001485  95.3628 264.7533 15.08837955 98086,6917.887,95.438,540.779,538.724,0.0
53622.0,STARLINK-4568,PAYLOAD,2024-06-05 12:17:24,15.08833419,0.0001268,53.2148,236.5722,94.8839,265.2298,9.0781e-06,-1.43e-06,0.0,0 STARLINK-4568,1 53622U 22104AL  24157.51209013 -.00000143  00000-0  90781-5 0  9996,2 53622  53.2148 236.5722 0001268  94.8839 265.2298 15.08833419 98809,6917.901,95.438,540.643,538.888,0.0
53622.0,STARLINK-4568,PAYLOAD,2024-06-05 15:28:10,15.08833063,0.000132,53.2155,235.9788,94.701,265.4133,-4.8859e-05,-1.065e-05,0.0,0 STARLINK-4568,1 53622U 22104AL  24157.64457068 -.00001065  00000-0 -48859-4 0  9998,2 53622  53.2155 235.9788 0001320  94.7010 265.4133 15.08833063 98828,6917.902,95.438,540.68,538.853,0.0
53622.0,STARLINK-4568,PAYLOAD,2024-06-06 12:08:11,15.08849485,0.0001347,53.2145,232.1134,92.6386,267.476,0.00032632,4.911e-05,0.0,0 STARLINK-4568,1 53622U 22104AL  24158.50568521  .00004911  00000-0  32632-3 0  9993,2 53622  53.2145 232.1134 0001347  92.6386 267.4760 15.08849485 98275,6917.851,95.437,540.648,538.785,0.0
53622.0,STARLINK-4568,PAYLOAD,2024-06-07 08:48:12,15.08836812,9.46e-05,53.2137,228.2467,73.9009,286.2087,0.00011902,1.607e-05,0.0,0 STARLINK-4568,1 53622U 22104AL  24159.36681090  .00001607  00000-0  11902-3 0  9991,2 53622  53.2137 228.2467 0000946  73.9009 286.2087 15.08836812 98405,6917.89,95.438,540.41,539.101,0.0
53622.0,STARLINK-4568,PAYLOAD,2024-06-07 13:34:21,15.08835809,0.0001384,53.2135,227.3541,92.6361,267.4789,0.00010438,1.373e-05,0.0,0 STARLINK-4568,1 53622U 22104AL  24159.56553196  .00001373  00000-0  10438-3 0  9991,2 53622  53.2135 227.3541 0001384  92.6361 267.4789 15.08835809 99116,6917.893,95.438,540.716,538.801,0.0
53622.0,STARLINK-4568,PAYLOAD,2024-06-07 21:31:17,15.08846309,0.0001203,53.2133,225.8669,85.8354,274.2776,0.00026844,3.988e-05,0.0,0 STARLINK-4568,1 53622U 22104AL  24159.89672769  .00003988  00000-0  26844-3 0  9997,2 53622  53.2133 225.8669 0001203  85.8354 274.2776 15.08846309 99168,6917.861,95.437,540.558,538.894,0.0
53622.0,STARLINK-4568,PAYLOAD,2024-06-08 13:25:08,15.08841122,0.0001409,53.2145,222.8953,88.5651,271.5502,8.769e-05,1.108e-05,0.0,0 STARLINK-4568,1 53622U 22104AL  24160.55913114  .00001108  00000-0  87690-4 0  9993,2 53622  53.2145 222.8953 0001409  88.5651 271.5502 15.08841122 99268,6917.877,95.437,540.717,538.767,0.0
53622.0,STARLINK-4568,PAYLOAD,2024-06-08 21:22:04,15.08850034,0.0001362,53.214,221.4065,82.9832,277.1315,0.00029028,4.336e-05,0.0,0 STARLINK-4568,1 53622U 22104AL  24160.89032754  .00004336  00000-0  29028-3 0  9998,2 53622  53.2140 221.4065 0001362  82.9832 277.1315 15.08850034 99311,6917.85,95.437,540.657,538.773,0.0
53622.0,STARLINK-4568,PAYLOAD,2024-06-09 11:40:33,15.0884077,0.0001522,53.2154,218.734,94.4986,265.618,0.00022972,3.37e-05,0.0,0 STARLINK-4568,1 53622U 22104AL  24161.48649495  .00003370  00000-0  22972-3 0  9998,2 53622  53.2154 218.7340 0001522  94.4986 265.6180 15.08840770 99405,6917.878,95.438,540.796,538.69,0.0
53622.0,STARLINK-4568,PAYLOAD,2024-06-09 21:12:51,15.08848476,0.000131,53.214,216.948,84.1951,275.9191,0.00039659,6.031e-05,0.0,0 STARLINK-4568,1 53622U 22104AL  24161.88393237  .00006031  00000-0  39659-3 0  9999,2 53622  53.2140 216.9480 0001310  84.1951 275.9191 15.08848476 98785,6917.854,95.437,540.626,538.813,0.0
53622.0,STARLINK-4568,PAYLOAD,2024-06-10 09:55:57,15.08845103,0.0001576,53.2154,214.5678,95.8887,264.2285,0.00035894,5.43e-05,0.0,0 STARLINK-4568,1 53622U 22104AL  24162.41385422  .00005430  00000-0  35894-3 0  9995,2 53622  53.2154 214.5678 0001576  95.8887 264.2285 15.08845103 98862,6917.865,95.437,540.82,538.64,0.0
53622.0,STARLINK-4568,PAYLOAD,2024-06-10 21:03:38,15.08849628,0.0001515,53.2151,212.4866,93.9404,266.1761,0.00041548,6.332e-05,0.0,0 STARLINK-4568,1 53622U 22104AL  24162.87753256  .00006332  00000-0  41548-3 0  9994,2 53622  53.2151 212.4866 0001515  93.9404 266.1761 15.08849628 99612,6917.851,95.437,540.764,538.668,0.0
53622.0,STARLINK-4568,PAYLOAD,2024-06-11 09:46:43,15.08843398,0.0001576,53.2156,210.1077,93.6616,266.4557,0.00016873,2.399e-05,0.0,0 STARLINK-4568,1 53622U 22104AL  24163.40745350  .00002399  00000-0  16873-3 0  9992,2 53622  53.2156 210.1077 0001576  93.6616 266.4557 15.08843398 99697,6917.87,95.437,540.825,538.645,0.0
53622.0,STARLINK-4568,PAYLOAD,2024-06-12 03:15:58,15.08839169,0.0001574,53.216,206.8366,97.7863,262.3308,9.9927e-05,1.303e-05,0.0,0 STARLINK-4568,1 53622U 22104AL  24164.13609518  .00001303  00000-0  99927-4 0  9994,2 53622  53.2160 206.8366 0001574  97.7863 262.3308 15.08839169 99120,6917.883,95.438,540.837,538.659,0.0
53622.0,STARLINK-4568,PAYLOAD,2024-06-12 06:26:45,15.08835944,0.0001522,53.2158,206.2427,94.2759,265.8407,2.5401e-06,-2.48e-06,0.0,0 STARLINK-4568,1 53622U 22104AL  24164.26857665 -.00000248  00000-0  25401-5 0  9991,2 53622  53.2158 206.2427 0001522  94.2759 265.8407 15.08835944 99820,6917.893,95.438,540.811,538.705,0.0
53622.0,STARLINK-4568,PAYLOAD,2024-06-12 09:37:32,15.08821004,0.0001498,53.2173,205.6475,99.2882,260.828,0.00019461,2.809e-05,0.0,0 STARLINK-4568,1 53622U 22104AL  24164.40106587  .00002809  00000-0  19461-3 0  9998,2 53622  53.2173 205.6475 0001498  99.2882 260.8280 15.08821004 99160,6917.938,95.439,540.84,538.767,0.0
53622.0,STARLINK-4568,PAYLOAD,2024-06-13 03:06:45,15.08835635,0.0001407,53.2162,202.3757,97.1724,262.9428,6.741e-05,7.85e-06,0.0,0 STARLINK-4568,1 53622U 22104AL  24165.12969775  .00000785  00000-0  67410-4 0  9993,2 53622  53.2162 202.3757 0001407  97.1724 262.9428 15.08835635 99271,6917.894,95.438,540.732,538.785,0.0
53622.0,STARLINK-4568,PAYLOAD,2024-06-13 09:28:18,15.08841704,0.0001363,53.2162,201.1869,96.3649,263.7498,0.00011349,1.519e-05,0.0,0 STARLINK-4568,1 53622U 22104AL  24165.39465329  .00001519  00000-0  11349-3 0  9993,2 53622  53.2162 201.1869 0001363  96.3649 263.7498 15.08841704 99999,6917.875,95.437,540.683,538.797,0.0
53622.0,STARLINK-4568,PAYLOAD,2024-06-13 19:00:36,15.08844344,0.0001258,53.2158,199.4022,93.212,266.9016,0.0001004,1.311e-05,0.0,0 STARLINK-4568,1 53622U 22104AL  24165.79209092  .00001311  00000-0  10040-3 0  9997,2 53622  53.2158 199.4022 0001258  93.2120 266.9016 15.08844344100051,6917.867,95.437,540.602,538.862,0.0
53622.0,STARLINK-4568,PAYLOAD,2024-06-14 09:19:06,15.08829245,0.0001455,53.2173,196.7288,101.3052,258.8104,7.6615e-05,9.31e-06,0.0,0 STARLINK-4568,1 53622U 22104AL  24166.38826421  .00000931  00000-0  76615-4 0  9992,2 53622  53.2173 196.7288 0001455 101.3052 258.8104 15.08829245100147,6917.913,95.438,540.785,538.772,0.0
53622.0,STARLINK-4568,PAYLOAD,2024-06-14 18:51:24,15.08835596,0.0001445,53.2174,194.9448,101.0922,259.0232,7.784e-05,9.51e-06,0.0,0 STARLINK-4568,1 53622U 22104AL  24166.78570190  .00000951  00000-0  77840-4 0  9998,2 53622  53.2174 194.9448 0001445 101.0922 259.0232 15.08835596100206,6917.894,95.438,540.758,538.759,0.0
53622.0,STARLINK-4568,PAYLOAD,2024-06-15 10:45:15,15.08844723,0.0001358,53.2166,191.9704,98.9945,261.1201,6.9618e-05,8.2e-06,0.0,0 STARLINK-4568,1 53622U 22104AL  24167.44809588  .00000820  00000-0  69618-4 0  9997,2 53622  53.2166 191.9704 0001358  98.9945 261.1201 15.08844723100304,6917.866,95.437,540.67,538.792,0.0
